GLOBALSTAR M057         
1 25943U 99058A   25250.86271705 -.00000075  00000+0  16265-3 0  9999
2 25943  51.9973 113.5711 0002453 165.3521 194.7400 12.24826727177062
GLOBALSTAR M059         
1 25944U 99058B   25250.82027330 -.00000010  00000+0  94163-3 0  9991
2 25944  52.0049 343.6253 0001028 115.4315  12.4746 11.99985108583969
GLOBALSTAR M056         
1 25945U 99058C   25250.66171052 -.00000088  00000+0 -65836-5 0  9998
2 25945  51.9995 343.8979 0000721  25.0403 125.9108 12.04779142172566
GLOBALSTAR M031         
1 25946U 99058D   25250.46393500 -.00000041  00000+0  50207-3 0  9993
2 25946  51.9940 231.8395 0001498 353.4982 159.6902 12.16039862174555
GLOBALSTAR M039         
1 25961U 99062A   25250.82890465 -.00000084  00000+0  11172-3 0  9992
2 25961  51.9869  17.0038 0002990 157.1278 202.9722 12.62331651190658
GLOBALSTAR M034         
1 25962U 99062B   25250.92144728 -.00000029  00000+0  82565-3 0  9991
2 25962  51.9864 156.3256 0013565 196.3244 244.2659 11.79448572148155
GLOBALSTAR M029         
1 25963U 99062C   25250.67858208 -.00000091  00000+0 -54696-4 0  9994
2 25963  51.9780 231.9721 0002456 285.9368 245.8305 11.99900730179025
GLOBALSTAR M061         
1 25964U 99062D   25250.96610167 -.00000054  00000+0  42599-3 0  9993
2 25964  51.9829 341.3456 0006513 120.4161  53.8880 11.76775719130926
